[Satellite]
VERSION=1.1
NAME=COSMOS 2492 (754)
NICKNAME=COSMOS 2492 (754)
TLE1=1 39620U 14012A   15055.63114247 -.00000009  00000-0  10000-3 0  9996
TLE2=2 39620  64.9165  93.3263 0016659 327.7110 173.3271  2.13103579  7234
